IRIDIUM 171             
1 43929U 19002H   24172.87105280  .00000132  00000+0  40183-4 0  9991
2 43929  86.3969 297.3279 0002371  92.0897 268.0570 14.34217475284850
IRIDIUM 170             
1 43930U 19002J   24172.93022768  .00000136  00000+0  17701-4 0  9993
2 43930  86.6090 297.1219 0002267  91.5099 268.6378 14.72249689292400
IRIDIUM 167             
1 43931U 19002K   24172.86471010  .00000002  00000+0 -64389-5 0  9992
2 43931  86.3958 297.1208 0002133  94.8173 265.3267 14.34217530284859
IRIDIUM 181             
1 56726U 23068S   24172.98873983  .00000443  00000+0  12512-3 0  9990
2 56726  86.8636 350.9873 0002392  94.9035 265.2439 14.43564917 57687
IRIDIUM 177             
1 56727U 23068T   24172.94331219  .00000946  00000+0  12103-3 0  9992
2 56727  86.1969 313.5761 0002653  88.1726 271.9798 14.80227995 58937
IRIDIUM 174             
1 56728U 23068U   24172.80267552  .00001596  00000+0  20650-3 0  9994
2 56728  86.1974 313.7471 0002227  96.2725 263.8750 14.80230151 58914
IRIDIUM 178             
1 56729U 23068V   24172.93248721  .00001622  00000+0  21000-3 0  9996
2 56729  86.5778 331.3286 0001871  91.2243 268.9193 14.80250519 58934
IRIDIUM 179             
1 56730U 23068W   24172.92707073  .00001661  00000+0  21522-3 0  9999
2 56730  86.6789 335.5125 0002038  94.0959 266.0496 14.80230992 58936
